{
  "type": "FeatureCollection",
  "features": [
    {
      "type": "Feature",
      "properties": {
        "norad_id": 66573,
        "name": "STARLINK-35650",
        "group": "last-30-days",
        "lat": -41.10537759265789,
        "lon": 63.56963194431672,
        "alt_km": 416.894918465955,
        "timestamp": "2025-12-10T16:57:10.416235+00:00",
        "meta_object_name": "STARLINK-35650",
        "meta_object_id": "2025-268S",
        "meta_epoch": "2025-12-10T12:00:02.998944",
        "meta_mean_motion": 15.50643243,
        "meta_eccentricity": 0.0002118,
        "meta_inclination": 43.0002,
        "meta_ra_of_asc_node": 134.2205,
        "meta_arg_of_pericenter": 275.9492,
        "meta_mean_anomaly": 296.2263,
        "meta_ephemeris_type": 0,
        "meta_classification_type": "U",
        "meta_norad_cat_id": 66573,
        "meta_element_set_no": 999,
        "meta_rev_at_epoch": 430,
        "meta_bstar": -0.0027958,
        "meta_mean_motion_dot": -0.00161407,
        "meta_mean_motion_ddot": 0,
        "tle_line1": "1 66573U 25268S   25344.50003471 -.00161407  00000+0 -27958-2 0  9991",
        "tle_line2": "2 66573  43.0002 134.2205 0002118 275.9492 296.2263 15.50643243  4305"
      },
      "geometry": {
        "type": "Point",
        "coordinates": [
          63.56963194431672,
          -41.10537759265789
        ]
      }
    },
    {
      "type": "Feature",
      "properties": {
        "norad_id": 66574,
        "name": "STARLINK-35812",
        "group": "last-30-days",
        "lat": -40.628150284727255,
        "lon": 65.98036087581465,
        "alt_km": 417.170230826604,
        "timestamp": "2025-12-10T16:57:10.416247+00:00",
        "meta_object_name": "STARLINK-35812",
        "meta_object_id": "2025-268T",
        "meta_epoch": "2025-12-10T12:00:02.998944",
        "meta_mean_motion": 15.50586482,
        "meta_eccentricity": 0.000182,
        "meta_inclination": 43.0002,
        "meta_ra_of_asc_node": 134.2158,
        "meta_arg_of_pericenter": 266.6241,
        "meta_mean_anomaly": 307.4632,
        "meta_ephemeris_type": 0,
        "meta_classification_type": "U",
        "meta_norad_cat_id": 66574,
        "meta_element_set_no": 999,
        "meta_rev_at_epoch": 430,
        "meta_bstar": -0.00082642,
        "meta_mean_motion_dot": -0.00048538,
        "meta_mean_motion_ddot": 0,
        "tle_line1": "1 66574U 25268T   25344.50003471 -.00048538  00000+0 -82642-3 0  9993",
        "tle_line2": "2 66574  43.0002 134.2158 0001820 266.6241 307.4632 15.50586482  4307"
      },
      "geometry": {
        "type": "Point",
        "coordinates": [
          65.98036087581465,
          -40.628150284727255
        ]
      }
    },
    {
      "type": "Feature",
      "properties": {
        "norad_id": 66575,
        "name": "STARLINK-35810",
        "group": "last-30-days",
        "lat": -40.094198458396285,
        "lon": 68.38567574087361,
        "alt_km": 417.206589107559,
        "timestamp": "2025-12-10T16:57:10.416262+00:00",
        "meta_object_name": "STARLINK-35810",
        "meta_object_id": "2025-268U",
        "meta_epoch": "2025-12-10T12:00:02.998944",
        "meta_mean_motion": 15.50590758,
        "meta_eccentricity": 0.0001709,
        "meta_inclination": 43.0002,
        "meta_ra_of_asc_node": 134.2112,
        "meta_arg_of_pericenter": 269.8869,
        "meta_mean_anomaly": 306.1146,
        "meta_ephemeris_type": 0,
        "meta_classification_type": "U",
        "meta_norad_cat_id": 66575,
        "meta_element_set_no": 999,
        "meta_rev_at_epoch": 430,
        "meta_bstar": -0.00097631,
        "meta_mean_motion_dot": -0.00057225,
        "meta_mean_motion_ddot": 0,
        "tle_line1": "1 66575U 25268U   25344.50003471 -.00057225  00000+0 -97631-3 0  9991",
        "tle_line2": "2 66575  43.0002 134.2112 0001709 269.8869 306.1146 15.50590758  4302"
      },
      "geometry": {
        "type": "Point",
        "coordinates": [
          68.38567574087361,
          -40.094198458396285
        ]
      }
    },
    {
      "type": "Feature",
      "properties": {
        "norad_id": 66576,
        "name": "STARLINK-35814",
        "group": "last-30-days",
        "lat": -39.50862872889991,
        "lon": 70.76134708717062,
        "alt_km": 417.20823318765997,
        "timestamp": "2025-12-10T16:57:10.416272+00:00",
        "meta_object_name": "STARLINK-35814",
        "meta_object_id": "2025-268V",
        "meta_epoch": "2025-12-10T12:00:02.998944",
        "meta_mean_motion": 15.5059448,
        "meta_eccentricity": 0.0001811,
        "meta_inclination": 43.0003,
        "meta_ra_of_asc_node": 134.2062,
        "meta_arg_of_pericenter": 260.1758,
        "meta_mean_anomaly": 317.7425,
        "meta_ephemeris_type": 0,
        "meta_classification_type": "U",
        "meta_norad_cat_id": 66576,
        "meta_element_set_no": 999,
        "meta_rev_at_epoch": 430,
        "meta_bstar": -0.0010372,
        "meta_mean_motion_dot": -0.00060752,
        "meta_mean_motion_ddot": 0,
        "tle_line1": "1 66576U 25268V   25344.50003471 -.00060752  00000+0 -10372-2 0  9997",
        "tle_line2": "2 66576  43.0003 134.2062 0001811 260.1758 317.7425 15.50594480  4307"
      },
      "geometry": {
        "type": "Point",
        "coordinates": [
          70.76134708717062,
          -39.50862872889991
        ]
      }
    },
    {
      "type": "Feature",
      "properties": {
        "norad_id": 66577,
        "name": "STARLINK-35815",
        "group": "last-30-days",
        "lat": -38.876514142797284,
        "lon": 73.09063295984534,
        "alt_km": 417.28738813228574,
        "timestamp": "2025-12-10T16:57:10.416282+00:00",
        "meta_object_name": "STARLINK-35815",
        "meta_object_id": "2025-268W",
        "meta_epoch": "2025-12-10T12:00:02.998944",
        "meta_mean_motion": 15.50602074,
        "meta_eccentricity": 0.0001601,
        "meta_inclination": 43.0001,
        "meta_ra_of_asc_node": 134.2014,
        "meta_arg_of_pericenter": 264.0776,
        "meta_mean_anomaly": 315.7591,
        "meta_ephemeris_type": 0,
        "meta_classification_type": "U",
        "meta_norad_cat_id": 66577,
        "meta_element_set_no": 999,
        "meta_rev_at_epoch": 430,
        "meta_bstar": -0.0014091,
        "meta_mean_motion_dot": -0.00082213,
        "meta_mean_motion_ddot": 0,
        "tle_line1": "1 66577U 25268W   25344.50003471 -.00082213  00000+0 -14091-2 0  9996",
        "tle_line2": "2 66577  43.0001 134.2014 0001601 264.0776 315.7591 15.50602074  4304"
      },
      "geometry": {
        "type": "Point",
        "coordinates": [
          73.09063295984534,
          -38.876514142797284
        ]
      }
    },
    {
      "type": "Feature",
      "properties": {
        "norad_id": 66578,
        "name": "STARLINK-35743",
        "group": "last-30-days",
        "lat": -38.19863189893832,
        "lon": 75.37823908087677,
        "alt_km": 417.3112755189777,
        "timestamp": "2025-12-10T16:57:10.416292+00:00",
        "meta_object_name": "STARLINK-35743",
        "meta_object_id": "2025-268X",
        "meta_epoch": "2025-12-10T12:00:02.998944",
        "meta_mean_motion": 15.50600188,
        "meta_eccentricity": 0.0001597,
        "meta_inclination": 43.0001,
        "meta_ra_of_asc_node": 134.1964,
        "meta_arg_of_pericenter": 260.646,
        "meta_mean_anomaly": 321.11,
        "meta_ephemeris_type": 0,
        "meta_classification_type": "U",
        "meta_norad_cat_id": 66578,
        "meta_element_set_no": 999,
        "meta_rev_at_epoch": 430,
        "meta_bstar": -0.0013571,
        "meta_mean_motion_dot": -0.00079215,
        "meta_mean_motion_ddot": 0,
        "tle_line1": "1 66578U 25268X   25344.50003471 -.00079215  00000+0 -13571-2 0  9997",
        "tle_line2": "2 66578  43.0001 134.1964 0001597 260.6460 321.1100 15.50600188  4305"
      },
      "geometry": {
        "type": "Point",
        "coordinates": [
          75.37823908087677,
          -38.19863189893832
        ]
      }
    },
    {
      "type": "Feature",
      "properties": {
        "norad_id": 66579,
        "name": "STARLINK-35868",
        "group": "last-30-days",
        "lat": -37.48028984491703,
        "lon": 77.61309180560542,
        "alt_km": 417.2352635570878,
        "timestamp": "2025-12-10T16:57:10.416304+00:00",
        "meta_object_name": "STARLINK-35868",
        "meta_object_id": "2025-268Y",
        "meta_epoch": "2025-12-10T12:00:02.998944",
        "meta_mean_motion": 15.50576862,
        "meta_eccentricity": 0.0001707,
        "meta_inclination": 43.0002,
        "meta_ra_of_asc_node": 134.1918,
        "meta_arg_of_pericenter": 262.6482,
        "meta_mean_anomaly": 321.0298,
        "meta_ephemeris_type": 0,
        "meta_classification_type": "U",
        "meta_norad_cat_id": 66579,
        "meta_element_set_no": 999,
        "meta_rev_at_epoch": 430,
        "meta_bstar": -0.00066097,
        "meta_mean_motion_dot": -0.00038923,
        "meta_mean_motion_ddot": 0,
        "tle_line1": "1 66579U 25268Y   25344.50003471 -.00038923  00000+0 -66097-3 0  9991",
        "tle_line2": "2 66579  43.0002 134.1918 0001707 262.6482 321.0298 15.50576862  4303"
      },
      "geometry": {
        "type": "Point",
        "coordinates": [
          77.61309180560542,
          -37.48028984491703
        ]
      }
    }
  ]
}